start=new Date('2022-10-02T00:00:00.000Z').valueOf();
sats=[{"MEAN_MOTION":"15.06397903","GP_ID":"213975891","MEAN_MOTION_DDOT":"0.0000000000000","COUNTRY_CODE":"US","OBJECT_NAME":"STARLINK-2115","CENTER_NAME":"EARTH","EPOCH":"2022-10-01T15:57:14.467392","PERIAPSIS":"545.967","FILE":"3588844","MEAN_ANOMALY":"309.3529","NORAD_CAT_ID":"47394","RA_OF_ASC_NODE":"260.8152","APOAPSIS":"548.473","SEMIMAJOR_AXIS":"6925.355","OBJECT_ID":"2021-005AX","TLE_LINE2":"2 47394  53.0554 260.8152 0001809  50.7621 309.3529 15.06397903 94371","BSTAR":"0.00003655700000","MEAN_MOTION_DOT":"0.00000263","INCLINATION":"53.0554","TIME_SYSTEM":"UTC","TLE_LINE1":"1 47394U 21005AX  22274.66475078  .00000263  00000-0  36557-4 0  9996","ECCENTRICITY":"0.00018090","SITE":"AFETR","EPHEMERIS_TYPE":"0","RCS_SIZE":"LARGE","OBJECT_TYPE":"PAYLOAD","MEAN_ELEMENT_THEORY":"SGP4","CLASSIFICATION_TYPE":"U","LAUNCH_DATE":"2021-01-20","REF_FRAME":"TEME","REV_AT_EPOCH":"9437","ELEMENT_SET_NO":"999","DECAY_DATE":null,"PERIOD":"95.592","ARG_OF_PERICENTER":"50.7621"},{"SITE":"AFETR","EPHEMERIS_TYPE":"0","ECCENTRICITY":"0.00015220","RCS_SIZE":"LARGE","INCLINATION":"53.0535","MEAN_MOTION_DOT":"0.00004971","TLE_LINE1":"1 47395U 21005AY  22274.35372918  .00004971  00000-0  35221-3 0  9998","TIME_SYSTEM":"UTC","REF_FRAME":"TEME","DECAY_DATE":null,"ARG_OF_PERICENTER":"68.3938","PERIOD":"95.591","REV_AT_EPOCH":"9439","ELEMENT_SET_NO":"999","MEAN_ELEMENT_THEORY":"SGP4","OBJECT_TYPE":"PAYLOAD","LAUNCH_DATE":"2021-01-20","CLASSIFICATION_TYPE":"U","MEAN_MOTION_DDOT":"0.0000000000000","COUNTRY_CODE":"US","MEAN_MOTION":"15.06414780","GP_ID":"213946464","RA_OF_ASC_NODE":"257.0470","APOAPSIS":"548.222","BSTAR":"0.00035221000000","TLE_LINE2":"2 47395  53.0535 257.0470 0001522  68.3938 291.7213 15.06414780 94399","SEMIMAJOR_AXIS":"6925.303","OBJECT_ID":"2021-005AY","PERIAPSIS":"546.114","FILE":"3588593","OBJECT_NAME":"STARLINK-2117","CENTER_NAME":"EARTH","EPOCH":"2022-10-01T08:29:22.201152","MEAN_ANOMALY":"291.7213","NORAD_CAT_ID":"47395"},{"SITE":"AFETR","EPHEMERIS_TYPE":"0","ECCENTRICITY":"0.00014380","RCS_SIZE":"LARGE","MEAN_MOTION_DOT":"0.00002929","INCLINATION":"53.0549","TLE_LINE1":"1 47396U 21005AZ  22274.39704219  .00002929  00000-0  21544-3 0  9990","TIME_SYSTEM":"UTC","REF_FRAME":"TEME","DECAY_DATE":null,"PERIOD":"95.592","ARG_OF_PERICENTER":"77.9952","REV_AT_EPOCH":"9426","ELEMENT_SET_NO":"999","MEAN_ELEMENT_THEORY":"SGP4","OBJECT_TYPE":"PAYLOAD","LAUNCH_DATE":"2021-01-20","CLASSIFICATION_TYPE":"U","MEAN_MOTION_DDOT":"0.0000000000000","COUNTRY_CODE":"US","MEAN_MOTION":"15.06402295","GP_ID":"213945214","RA_OF_ASC_NODE":"266.8507","APOAPSIS":"548.202","BSTAR":"0.00021544000000","TLE_LINE2":"2 47396  53.0549 266.8507 0001438  77.9952 282.1198 15.06402295 94262","SEMIMAJOR_AXIS":"6925.342","OBJECT_ID":"2021-005AZ","PERIAPSIS":"546.211","FILE":"3588593","OBJECT_NAME":"STARLINK-2118","CENTER_NAME":"EARTH","EPOCH":"2022-10-01T09:31:44.445216","MEAN_ANOMALY":"282.1198","NORAD_CAT_ID":"47396"},{"MEAN_MOTION_DDOT":"0.0000000000000","COUNTRY_CODE":"US","MEAN_MOTION":"15.06415561","GP_ID":"213977643","APOAPSIS":"548.384","RA_OF_ASC_NODE":"295.0630","BSTAR":"0.00038683000000","TLE_LINE2":"2 47397  53.0530 295.0630 0001759  62.3541 297.7626 15.06415561 93900","SEMIMAJOR_AXIS":"6925.301","OBJECT_ID":"2021-005BA","FILE":"3588844","PERIAPSIS":"545.948","EPOCH":"2022-10-01T19:00:59.287104","OBJECT_NAME":"STARLINK-2119","CENTER_NAME":"EARTH","MEAN_ANOMALY":"297.7626","NORAD_CAT_ID":"47397","SITE":"AFETR","EPHEMERIS_TYPE":"0","ECCENTRICITY":"0.00017590","RCS_SIZE":"LARGE","INCLINATION":"53.0530","MEAN_MOTION_DOT":"0.00005487","TLE_LINE1":"1 47397U 21005BA  22274.79235286  .00005487  00000-0  38683-3 0  9992","TIME_SYSTEM":"UTC","REF_FRAME":"TEME","PERIOD":"95.591","ARG_OF_PERICENTER":"62.3541","DECAY_DATE":null,"ELEMENT_SET_NO":"999","REV_AT_EPOCH":"9390","MEAN_ELEMENT_THEORY":"SGP4","OBJECT_TYPE":"PAYLOAD","LAUNCH_DATE":"2021-01-20","CLASSIFICATION_TYPE":"U"},{"MEAN_ELEMENT_THEORY":"SGP4","OBJECT_TYPE":"PAYLOAD","LAUNCH_DATE":"2021-01-20","CLASSIFICATION_TYPE":"U","REF_FRAME":"TEME","ARG_OF_PERICENTER":"69.1443","PERIOD":"95.592","DECAY_DATE":null,"ELEMENT_SET_NO":"999","REV_AT_EPOCH":"9430","INCLINATION":"53.0540","MEAN_MOTION_DOT":"0.00004911","TLE_LINE1":"1 47398U 21005BB  22274.69928295  .00004911  00000-0  34828-3 0  9999","TIME_SYSTEM":"UTC","EPHEMERIS_TYPE":"0","SITE":"AFETR","ECCENTRICITY":"0.00016110","RCS_SIZE":"LARGE","FILE":"3588844","PERIAPSIS":"546.067","EPOCH":"2022-10-01T16:46:58.046880","OBJECT_NAME":"STARLINK-2120","CENTER_NAME":"EARTH","NORAD_CAT_ID":"47398","MEAN_ANOMALY":"290.9719","APOAPSIS":"548.298","RA_OF_ASC_NODE":"265.5023","BSTAR":"0.00034828000000","TLE_LINE2":"2 47398  53.0540 265.5023 0001611  69.1443 290.9719 15.06410060 94305","OBJECT_ID":"2021-005BB","SEMIMAJOR_AXIS":"6925.318","MEAN_MOTION":"15.06410060","GP_ID":"213976391","MEAN_MOTION_DDOT":"0.0000000000000","COUNTRY_CODE":"US"},{"APOAPSIS":"548.429","RA_OF_ASC_NODE":"277.0611","SEMIMAJOR_AXIS":"6925.340","OBJECT_ID":"2021-005BC","BSTAR":"0.00004756700000","TLE_LINE2":"2 47399  53.0542 277.0611 0001767  62.5927 297.5242 15.06402721 94113","EPOCH":"2022-10-01T09:41:03.600096","OBJECT_NAME":"STARLINK-2121","CENTER_NAME":"EARTH","FILE":"3588593","PERIAPSIS":"545.982","NORAD_CAT_ID":"47399","MEAN_ANOMALY":"297.5242","MEAN_MOTION_DDOT":"0.0000000000000","COUNTRY_CODE":"US","MEAN_MOTION":"15.06402721","GP_ID":"213945963","REF_FRAME":"TEME","ELEMENT_SET_NO":"999","REV_AT_EPOCH":"9411","ARG_OF_PERICENTER":"62.5927","PERIOD":"95.592","DECAY_DATE":null,"OBJECT_TYPE":"PAYLOAD","MEAN_ELEMENT_THEORY":"SGP4","CLASSIFICATION_TYPE":"U","LAUNCH_DATE":"2021-01-20","ECCENTRICITY":"0.00017670","SITE":"AFETR","EPHEMERIS_TYPE":"0","RCS_SIZE":"LARGE","MEAN_MOTION_DOT":"0.00000427","INCLINATION":"53.0542","TIME_SYSTEM":"UTC","TLE_LINE1":"1 47399U 21005BC  22274.40351389  .00000427  00000-0  47567-4 0  9996"},{"MEAN_ELEMENT_THEORY":"SGP4","OBJECT_TYPE":"PAYLOAD","LAUNCH_DATE":"2021-01-20","CLASSIFICATION_TYPE":"U","REF_FRAME":"TEME","PERIOD":"95.592","ARG_OF_PERICENTER":"70.6299","DECAY_DATE":null,"ELEMENT_SET_NO":"999","REV_AT_EPOCH":"9439","INCLINATION":"53.0546","MEAN_MOTION_DOT":"0.00002475","TLE_LINE1":"1 47400U 21005BD  22274.36478809  .00002475  00000-0  18495-3 0  9993","TIME_SYSTEM":"UTC","SITE":"AFETR","EPHEMERIS_TYPE":"0","ECCENTRICITY":"0.00016740","RCS_SIZE":"LARGE","FILE":"3588593","PERIAPSIS":"546.038","EPOCH":"2022-10-01T08:45:17.690976","CENTER_NAME":"EARTH","OBJECT_NAME":"STARLINK-2122","NORAD_CAT_ID":"47400","MEAN_ANOMALY":"289.4871","APOAPSIS":"548.356","RA_OF_ASC_NODE":"257.0042","TLE_LINE2":"2 47400  53.0546 257.0042 0001674  70.6299 289.4871 15.06405446 94390","BSTAR":"0.00018495000000","OBJECT_ID":"2021-005BD","SEMIMAJOR_AXIS":"6925.332","MEAN_MOTION":"15.06405446","GP_ID":"213944714","MEAN_MOTION_DDOT":"0.0000000000000","COUNTRY_CODE":"US"},{"MEAN_MOTION":"15.06424241","GP_ID":"213977144","MEAN_MOTION_DDOT":"0.0000000000000","COUNTRY_CODE":"US","EPOCH":"2022-10-01T17:08:11.514624","CENTER_NAME":"EARTH","OBJECT_NAME":"STARLINK-2123","FILE":"3588844","PERIAPSIS":"545.902","NORAD_CAT_ID":"47401","MEAN_ANOMALY":"298.6679","APOAPSIS":"548.376","RA_OF_ASC_NODE":"265.4363","OBJECT_ID":"2021-005BE","SEMIMAJOR_AXIS":"6925.274","BSTAR":"0.00043099000000","TLE_LINE2":"2 47401  53.0538 265.4363 0001786  61.4490 298.6679 15.06424241 94310","MEAN_MOTION_DOT":"0.00006148","INCLINATION":"53.0538","TIME_SYSTEM":"UTC","TLE_LINE1":"1 47401U 21005BE  22274.71402216  .00006148  00000-0  43099-3 0  9991","ECCENTRICITY":"0.00017860","EPHEMERIS_TYPE":"0","SITE":"AFETR","RCS_SIZE":"LARGE","OBJECT_TYPE":"PAYLOAD","MEAN_ELEMENT_THEORY":"SGP4","CLASSIFICATION_TYPE":"U","LAUNCH_DATE":"2021-01-20","REF_FRAME":"TEME","ELEMENT_SET_NO":"999","REV_AT_EPOCH":"9431","ARG_OF_PERICENTER":"61.4490","PERIOD":"95.591","DECAY_DATE":null},{"OBJECT_TYPE":"PAYLOAD","MEAN_ELEMENT_THEORY":"SGP4","CLASSIFICATION_TYPE":"U","LAUNCH_DATE":"2021-01-20","REF_FRAME":"TEME","ELEMENT_SET_NO":"999","REV_AT_EPOCH":"9432","ARG_OF_PERICENTER":"67.0792","PERIOD":"95.591","DECAY_DATE":null,"MEAN_MOTION_DOT":"0.00008304","INCLINATION":"53.0542","TIME_SYSTEM":"UTC","TLE_LINE1":"1 47402U 21005BF  22274.79881674  .00008304  00000-0  57555-3 0  9997","ECCENTRICITY":"0.00018180","SITE":"AFETR","EPHEMERIS_TYPE":"0","RCS_SIZE":"LARGE","EPOCH":"2022-10-01T19:10:17.766336","OBJECT_NAME":"STARLINK-2124","CENTER_NAME":"EARTH","FILE":"3588844","PERIAPSIS":"545.922","MEAN_ANOMALY":"293.0388","NORAD_CAT_ID":"47402","APOAPSIS":"548.441","RA_OF_ASC_NODE":"265.0454","OBJECT_ID":"2021-005BF","SEMIMAJOR_AXIS":"6925.317","TLE_LINE2":"2 47402  53.0542 265.0454 0001818  67.0792 293.0388 15.06410459 94329","BSTAR":"0.00057555000000","MEAN_MOTION":"15.06410459","GP_ID":"213975892","MEAN_MOTION_DDOT":"0.0000000000000","COUNTRY_CODE":"US"},{"GP_ID":"213946465","MEAN_MOTION":"15.06335083","COUNTRY_CODE":"US","MEAN_MOTION_DDOT":"0.0000000000000","NORAD_CAT_ID":"47403","MEAN_ANOMALY":"293.5715","FILE":"3588593","PERIAPSIS":"545.802","EPOCH":"2022-10-01T06:36:39.552192","OBJECT_NAME":"STARLINK-2127","CENTER_NAME":"EARTH","TLE_LINE2":"2 47403  53.0524 267.4017 0002325  66.5518 293.5715 15.06335083 94244","BSTAR":"0.00299470000000","SEMIMAJOR_AXIS":"6925.548","OBJECT_ID":"2021-005BG","APOAPSIS":"549.023","RA_OF_ASC_NODE":"267.4017","TLE_LINE1":"1 47403U 21005BG  22274.27545778  .00044530  00000-0  29947-2 0  9997","TIME_SYSTEM":"UTC","MEAN_MOTION_DOT":"0.00044530","INCLINATION":"53.0524","RCS_SIZE":"LARGE","EPHEMERIS_TYPE":"0","SITE":"AFETR","ECCENTRICITY":"0.00023250","LAUNCH_DATE":"2021-01-20","CLASSIFICATION_TYPE":"U","MEAN_ELEMENT_THEORY":"SGP4","OBJECT_TYPE":"PAYLOAD","ARG_OF_PERICENTER":"66.5518","PERIOD":"95.596","DECAY_DATE":null,"ELEMENT_SET_NO":"999","REV_AT_EPOCH":"9424","REF_FRAME":"TEME"}];
